[{"OBJECT_NAME":"OBJECT F","OBJECT_ID":"2024-024F","EPOCH":"2026-03-09T22:33:03.733056","MEAN_MOTION":15.20287854,"ECCENTRICITY":0.00130865,"INCLINATION":97.3129,"RA_OF_ASC_NODE":136.438,"ARG_OF_PERICENTER":36.354,"MEAN_ANOMALY":323.8582,"EPHEMERIS_TYPE":0,"CLASSIFICATION_TYPE":"U","NORAD_CAT_ID":58922,"ELEMENT_SET_NO":999,"REV_AT_EPOCH":11617,"BSTAR":0.00052703625,"MEAN_MOTION_DOT":0.00011414,"MEAN_MOTION_DDOT":0},{"OBJECT_NAME":"NUSAT-47","OBJECT_ID":"2025-276CF","EPOCH":"2026-03-09T17:45:49.486176","MEAN_MOTION":15.1906801,"ECCENTRICITY":0.00020185,"INCLINATION":97.4263,"RA_OF_ASC_NODE":144.0024,"ARG_OF_PERICENTER":39.1504,"MEAN_ANOMALY":320.9877,"EPHEMERIS_TYPE":0,"CLASSIFICATION_TYPE":"U","NORAD_CAT_ID":66743,"ELEMENT_SET_NO":999,"REV_AT_EPOCH":1532,"BSTAR":0.00039116013,"MEAN_MOTION_DOT":8.137e-5,"MEAN_MOTION_DDOT":0}]
